[{"OBJECT_NAME":"ORBASTRO-TR5","OBJECT_ID":"2025-052AC","EPOCH":"2026-03-09T16:13:44.206176","MEAN_MOTION":15.21342195,"ECCENTRICITY":0.00056631,"INCLINATION":97.3978,"RA_OF_ASC_NODE":322.1193,"ARG_OF_PERICENTER":133.5462,"MEAN_ANOMALY":226.6245,"EPHEMERIS_TYPE":0,"CLASSIFICATION_TYPE":"U","NORAD_CAT_ID":63236,"ELEMENT_SET_NO":999,"REV_AT_EPOCH":5468,"BSTAR":0.00031434334,"MEAN_MOTION_DOT":6.976e-5,"MEAN_MOTION_DDOT":0},{"OBJECT_NAME":"CO3D 2","OBJECT_ID":"2025-156D","EPOCH":"2026-03-09T21:26:54.125664","MEAN_MOTION":15.20209232,"ECCENTRICITY":0.00014107,"INCLINATION":97.4323,"RA_OF_ASC_NODE":148.9107,"ARG_OF_PERICENTER":117.4238,"MEAN_ANOMALY":242.7141,"EPHEMERIS_TYPE":0,"CLASSIFICATION_TYPE":"U","NORAD_CAT_ID":64902,"ELEMENT_SET_NO":999,"REV_AT_EPOCH":3444,"BSTAR":0.00024862852,"MEAN_MOTION_DOT":5.32e-5,"MEAN_MOTION_DDOT":0}]
